{
  "type": "FeatureCollection",
  "features": [
    {
      "type": "Feature",
      "properties": {
        "norad_id": 41174,
        "name": "GSAT0209 (GALILEO 12)",
        "group": "gnss",
        "lat": NaN,
        "lon": NaN,
        "alt_km": NaN,
        "timestamp": "2025-12-01T02:46:59.659539+00:00",
        "meta": {
          "OBJECT_NAME": "GSAT0209 (GALILEO 12)",
          "OBJECT_ID": "2015-079A",
          "EPOCH": "2025-11-29T00:19:48.752544",
          "MEAN_MOTION": 1.70474337,
          "ECCENTRICITY": 0.00023288,
          "INCLINATION": 55.7045,
          "RA_OF_ASC_NODE": 106.7579,
          "ARG_OF_PERICENTER": 359.5232,
          "MEAN_ANOMALY": 0.4568,
          "EPHEMERIS_TYPE": 0,
          "CLASSIFICATION_TYPE": "U",
          "NORAD_CAT_ID": 41174,
          "ELEMENT_SET_NO": 999,
          "REV_AT_EPOCH": 6136,
          "BSTAR": 0,
          "MEAN_MOTION_DOT": 5.4e-07,
          "MEAN_MOTION_DDOT": 0
        }
      },
      "geometry": {
        "type": "Point",
        "coordinates": [
          NaN,
          NaN
        ]
      }
    },
    {
      "type": "Feature",
      "properties": {
        "norad_id": 41175,
        "name": "GSAT0208 (GALILEO 11)",
        "group": "gnss",
        "lat": NaN,
        "lon": NaN,
        "alt_km": NaN,
        "timestamp": "2025-12-01T02:46:59.659556+00:00",
        "meta": {
          "OBJECT_NAME": "GSAT0208 (GALILEO 11)",
          "OBJECT_ID": "2015-079B",
          "EPOCH": "2025-11-30T09:46:10.644960",
          "MEAN_MOTION": 1.70474193,
          "ECCENTRICITY": 0.00018872,
          "INCLINATION": 55.7038,
          "RA_OF_ASC_NODE": 106.7167,
          "ARG_OF_PERICENTER": 11.7228,
          "MEAN_ANOMALY": 348.2564,
          "EPHEMERIS_TYPE": 0,
          "CLASSIFICATION_TYPE": "U",
          "NORAD_CAT_ID": 41175,
          "ELEMENT_SET_NO": 999,
          "REV_AT_EPOCH": 6180,
          "BSTAR": 0,
          "MEAN_MOTION_DOT": 4.8e-07,
          "MEAN_MOTION_DDOT": 0
        }
      },
      "geometry": {
        "type": "Point",
        "coordinates": [
          NaN,
          NaN
        ]
      }
    },
    {
      "type": "Feature",
      "properties": {
        "norad_id": 41241,
        "name": "IRNSS-1E",
        "group": "gnss",
        "lat": NaN,
        "lon": NaN,
        "alt_km": NaN,
        "timestamp": "2025-12-01T02:46:59.659574+00:00",
        "meta": {
          "OBJECT_NAME": "IRNSS-1E",
          "OBJECT_ID": "2016-003A",
          "EPOCH": "2025-11-30T16:05:08.670336",
          "MEAN_MOTION": 1.00279055,
          "ECCENTRICITY": 0.002194,
          "INCLINATION": 32.7992,
          "RA_OF_ASC_NODE": 62.629,
          "ARG_OF_PERICENTER": 186.3992,
          "MEAN_ANOMALY": 173.7167,
          "EPHEMERIS_TYPE": 0,
          "CLASSIFICATION_TYPE": "U",
          "NORAD_CAT_ID": 41241,
          "ELEMENT_SET_NO": 999,
          "REV_AT_EPOCH": 3609,
          "BSTAR": 0,
          "MEAN_MOTION_DOT": -2.92e-06,
          "MEAN_MOTION_DDOT": 0
        }
      },
      "geometry": {
        "type": "Point",
        "coordinates": [
          NaN,
          NaN
        ]
      }
    },
    {
      "type": "Feature",
      "properties": {
        "norad_id": 41328,
        "name": "GPS BIIF-12 (PRN 32)",
        "group": "gnss",
        "lat": NaN,
        "lon": NaN,
        "alt_km": NaN,
        "timestamp": "2025-12-01T02:46:59.659592+00:00",
        "meta": {
          "OBJECT_NAME": "GPS BIIF-12 (PRN 32)",
          "OBJECT_ID": "2016-007A",
          "EPOCH": "2025-11-29T22:18:04.287456",
          "MEAN_MOTION": 2.00561276,
          "ECCENTRICITY": 0.00915445,
          "INCLINATION": 55.3987,
          "RA_OF_ASC_NODE": 97.3656,
          "ARG_OF_PERICENTER": 243.2609,
          "MEAN_ANOMALY": 115.7881,
          "EPHEMERIS_TYPE": 0,
          "CLASSIFICATION_TYPE": "U",
          "NORAD_CAT_ID": 41328,
          "ELEMENT_SET_NO": 999,
          "REV_AT_EPOCH": 7184,
          "BSTAR": 0,
          "MEAN_MOTION_DOT": 3.3e-07,
          "MEAN_MOTION_DDOT": 0
        }
      },
      "geometry": {
        "type": "Point",
        "coordinates": [
          NaN,
          NaN
        ]
      }
    },
    {
      "type": "Feature",
      "properties": {
        "norad_id": 41330,
        "name": "COSMOS 2514 (751)",
        "group": "gnss",
        "lat": NaN,
        "lon": NaN,
        "alt_km": NaN,
        "timestamp": "2025-12-01T02:46:59.659609+00:00",
        "meta": {
          "OBJECT_NAME": "COSMOS 2514 (751)",
          "OBJECT_ID": "2016-008A",
          "EPOCH": "2025-11-30T07:39:02.472768",
          "MEAN_MOTION": 2.13102507,
          "ECCENTRICITY": 0.0012544,
          "INCLINATION": 65.1409,
          "RA_OF_ASC_NODE": 319.8297,
          "ARG_OF_PERICENTER": 219.8205,
          "MEAN_ANOMALY": 140.1015,
          "EPHEMERIS_TYPE": 0,
          "CLASSIFICATION_TYPE": "U",
          "NORAD_CAT_ID": 41330,
          "ELEMENT_SET_NO": 999,
          "REV_AT_EPOCH": 7638,
          "BSTAR": 0,
          "MEAN_MOTION_DOT": -2.1e-07,
          "MEAN_MOTION_DDOT": 0
        }
      },
      "geometry": {
        "type": "Point",
        "coordinates": [
          NaN,
          NaN
        ]
      }
    },
    {
      "type": "Feature",
      "properties": {
        "norad_id": 41384,
        "name": "IRNSS-1F",
        "group": "gnss",
        "lat": NaN,
        "lon": NaN,
        "alt_km": NaN,
        "timestamp": "2025-12-01T02:46:59.659628+00:00",
        "meta": {
          "OBJECT_NAME": "IRNSS-1F",
          "OBJECT_ID": "2016-015A",
          "EPOCH": "2025-11-30T13:59:51.142848",
          "MEAN_MOTION": 1.00266329,
          "ECCENTRICITY": 0.0022355,
          "INCLINATION": 4.8498,
          "RA_OF_ASC_NODE": 101.6022,
          "ARG_OF_PERICENTER": 179.2049,
          "MEAN_ANOMALY": 31.3133,
          "EPHEMERIS_TYPE": 0,
          "CLASSIFICATION_TYPE": "U",
          "NORAD_CAT_ID": 41384,
          "ELEMENT_SET_NO": 999,
          "REV_AT_EPOCH": 3567,
          "BSTAR": 0,
          "MEAN_MOTION_DOT": 1.81e-06,
          "MEAN_MOTION_DDOT": 0
        }
      },
      "geometry": {
        "type": "Point",
        "coordinates": [
          NaN,
          NaN
        ]
      }
    },
    {
      "type": "Feature",
      "properties": {
        "norad_id": 41434,
        "name": "BEIDOU-2 IGSO-6 (C13)",
        "group": "gnss",
        "lat": NaN,
        "lon": NaN,
        "alt_km": NaN,
        "timestamp": "2025-12-01T02:46:59.659646+00:00",
        "meta": {
          "OBJECT_NAME": "BEIDOU-2 IGSO-6 (C13)",
          "OBJECT_ID": "2016-021A",
          "EPOCH": "2025-11-29T16:01:16.721760",
          "MEAN_MOTION": 1.00257137,
          "ECCENTRICITY": 0.00590915,
          "INCLINATION": 59.9454,
          "RA_OF_ASC_NODE": 40.0323,
          "ARG_OF_PERICENTER": 231.0312,
          "MEAN_ANOMALY": 130.2075,
          "EPHEMERIS_TYPE": 0,
          "CLASSIFICATION_TYPE": "U",
          "NORAD_CAT_ID": 41434,
          "ELEMENT_SET_NO": 999,
          "REV_AT_EPOCH": 3548,
          "BSTAR": 0,
          "MEAN_MOTION_DOT": -1.5e-06,
          "MEAN_MOTION_DDOT": 0
        }
      },
      "geometry": {
        "type": "Point",
        "coordinates": [
          NaN,
          NaN
        ]
      }
    },
    {
      "type": "Feature",
      "properties": {
        "norad_id": 41469,
        "name": "IRNSS-1G",
        "group": "gnss",
        "lat": NaN,
        "lon": NaN,
        "alt_km": NaN,
        "timestamp": "2025-12-01T02:46:59.659665+00:00",
        "meta": {
          "OBJECT_NAME": "IRNSS-1G",
          "OBJECT_ID": "2016-027A",
          "EPOCH": "2025-11-30T19:35:44.952000",
          "MEAN_MOTION": 1.00267404,
          "ECCENTRICITY": 0.0001438,
          "INCLINATION": 4.7073,
          "RA_OF_ASC_NODE": 102.396,
          "ARG_OF_PERICENTER": 17.5397,
          "MEAN_ANOMALY": 13.4616,
          "EPHEMERIS_TYPE": 0,
          "CLASSIFICATION_TYPE": "U",
          "NORAD_CAT_ID": 41469,
          "ELEMENT_SET_NO": 999,
          "REV_AT_EPOCH": 3519,
          "BSTAR": 0,
          "MEAN_MOTION_DOT": -3.11e-06,
          "MEAN_MOTION_DDOT": 0
        }
      },
      "geometry": {
        "type": "Point",
        "coordinates": [
          NaN,
          NaN
        ]
      }
    }
  ]
}